STARLINK-36866          
1 67895U 26035S   26081.76790633  .00265814  00000+0  17201-2 0  9997
2 67895  97.2861  14.8282 0001901 121.1706 238.9746 15.75297627  5908
STARLINK-36877          
1 67896U 26035T   26082.18837178 -.00798571  00000+0 -48286-2 0  9991
2 67896  97.2885  15.3286 0002466  62.6728 297.4790 15.79573751  5970
STARLINK-36870          
1 67897U 26035U   26082.25001157  .00023849  00000+0  16080-3 0  9995
2 67897  97.2859  15.3793 0001530 113.2927 205.0089 15.75119011  5944
STARLINK-36810          
1 67898U 26035V   26082.26657799  .00328776  00000+0  21172-2 0  9990
2 67898  97.2855  15.3728 0000925  50.3636 309.7711 15.75234393  5983
STARLINK-36878          
1 67899U 26035W   26082.05705341  .00500580  00000+0  24451-2 0  9993
2 67899  97.2888  15.1985 0002210 104.2250 255.9264 15.81013250  5959
STARLINK-36361          
1 67900U 26035X   26082.05629860  .00544960  00000+0  26467-2 0  9996
2 67900  97.2879  15.2000 0003553 115.6616 244.5019 15.81024448  5957
STARLINK-36336          
1 67901U 26035Y   26082.26057406  .00423037  00000+0  26876-2 0  9996
2 67901  97.2851  15.3828 0000294 340.8150  19.3104 15.75284975  5983
STARLINK-36876          
1 67902U 26035Z   26082.25001157  .00077836  00000+0  51875-3 0  9998
2 67902  97.2853  15.4037 0001224 100.6064 269.6226 15.75155396  5944
STARLINK-36257          
1 67903U 26035AA  26081.76931826  .00264511  00000+0  17124-2 0  9995
2 67903  97.2873  14.8277 0001360 101.7871 258.3547 15.75291798  5909
STARLINK-36814          
1 67904U 26036A   26081.61454414  .00092713  00000+0  15665-2 0  9995
2 67904  43.0003 173.6060 0001813 246.0294 114.0377 15.50597032  5680
STARLINK-36729          
1 67905U 26036B   26082.25001157 -.01918016  00000+0 -47603-1 0  9991
2 67905  42.9999 169.3046 0001171 290.2327 258.2351 15.42919725  5821
STARLINK-36763          
1 67906U 26036C   26082.25001157 -.01922116  00000+0 -50168-1 0  9998
2 67906  42.9999 169.2567 0001105 273.8676 293.6762 15.41439375  5826
STARLINK-36742          
1 67907U 26036D   26082.25001157 -.01933393  00000+0 -45340-1 0  9994
2 67907  42.9984 169.2575 0000980 283.2007 284.3516 15.44605195  5825
STARLINK-36827          
1 67908U 26036E   26082.25001157 -.01843824  00000+0 -51540-1 0  9993
2 67908  42.9991 169.0422 0001164 260.6931  33.8972 15.39244601  5821
STARLINK-36822          
1 67909U 26036F   26080.65997157  .00089964  00000+0  15160-2 0  9993
2 67909  42.9968 178.4570 0000179  89.2305 270.8576 15.50685632  5547
STARLINK-36847          
1 67910U 26036G   26081.56519972  .00085529  00000+0  14483-2 0  9991
2 67910  43.0008 173.2112 0000925 249.3874 110.6887 15.50570646  5689
